[{"OBJECT_NAME":"STARLINK-32808","OBJECT_ID":"2025-022K","EPOCH":"2026-03-09T11:12:37.392480","MEAN_MOTION":15.301775,"ECCENTRICITY":0.00010344,"INCLINATION":53.1575,"RA_OF_ASC_NODE":130.8162,"ARG_OF_PERICENTER":77.7173,"MEAN_ANOMALY":282.3943,"EPHEMERIS_TYPE":0,"CLASSIFICATION_TYPE":"U","NORAD_CAT_ID":62863,"ELEMENT_SET_NO":999,"REV_AT_EPOCH":6186,"BSTAR":0.00051852455,"MEAN_MOTION_DOT":0.00015019,"MEAN_MOTION_DDOT":0},{"OBJECT_NAME":"GEOSCAN 5 (RS92S5)","OBJECT_ID":"2025-155R","EPOCH":"2026-03-09T22:01:07.273920","MEAN_MOTION":15.30265233,"ECCENTRICITY":0.00070849,"INCLINATION":97.4462,"RA_OF_ASC_NODE":37.7456,"ARG_OF_PERICENTER":154.5846,"MEAN_ANOMALY":205.5745,"EPHEMERIS_TYPE":0,"CLASSIFICATION_TYPE":"U","NORAD_CAT_ID":64891,"ELEMENT_SET_NO":999,"REV_AT_EPOCH":6562,"BSTAR":0.00068639307,"MEAN_MOTION_DOT":0.00020065,"MEAN_MOTION_DDOT":0}]
